ASTRA 3B                
1 36581U 10021A   26164.91212906  .00000146  00000+0  00000+0 0  9995
2 36581   1.4618  83.5938 0004171   1.7771 168.7122  1.00269406 58836
COMSATBW-2              
1 36582U 10021B   26164.90322890  .00000098  00000+0  00000+0 0  9995
2 36582   0.0375  58.8104 0002513  39.8501 141.8966  1.00271340 58921
BEIDOU-2 G3             
1 36590U 10024A   26164.96166682 -.00000130  00000+0  00000+0 0  9996
2 36590   4.5069  61.5280 0007814 351.9281 274.7175  1.00271447 58732
BADR-5                  
1 36592U 10025A   26164.94477184  .00000163  00000+0  00000+0 0  9994
2 36592   0.0777 107.7532 0003316  86.3139  78.7714  1.00268214 53181
COMS 1                  
1 36744U 10032A   26164.85864462  .00000003  00000+0  00000+0 0  9993
2 36744   4.7961  75.3929 0011446  11.6277 210.9948  0.99162789 51053
ARABSAT-5A              
1 36745U 10032B   26164.94477222  .00000163  00000+0  00000+0 0  9995
2 36745   0.0842  57.9285 0005710  44.4342 170.4804  1.00272480 58619
ECHOSTAR 15             
1 36792U 10034A   26164.66707005  .00000010  00000+0  00000+0 0  9994
2 36792   0.0281  55.8734 0001570  34.7972 292.6465  1.00272001 58287
BEIDOU-2 IGSO-1         
1 36828U 10036A   26164.92579899 -.00000047  00000+0  00000+0 0  9994
2 36828  54.3020 162.9897 0059243 225.1130 315.0800  1.00272866 58060
NILESAT 201             
1 36830U 10037A   26164.90312032 -.00000047  00000+0  00000+0 0  9990
2 36830   0.0471 136.9860 0004378 336.0906 107.2767  1.00271802 58347
RASCOM-QAF 1R           
1 36831U 10037B   26164.90502700  .00000028  00000+0  00000+0 0  9992
2 36831   0.0149  57.7457 0006791  20.8842 152.2827  1.00271998 58275
AEHF-1 (USA 214)        
1 36868U 10039A   26164.91815687  .00000150  00000+0  00000+0 0  9992
2 36868   8.2110  68.0920 0003814   7.2371 187.3593  1.00272858 53621
XM-5                    
1 37185U 10053A   26164.88171538 -.00000013  00000+0  00000+0 0  9996
2 37185   0.0640 273.2148 0002967 287.6063 263.5932  1.00271658 57450
BSAT-3B                 
1 37207U 10056B   26164.97141718 -.00000340  00000+0  00000+0 0  9994
2 37207   0.0695 245.7712 0001495 301.6654 174.4109  1.00270900 52061
BEIDOU-2 G4             
1 37210U 10057A   26165.00311021 -.00000106  00000+0  00000+0 0  9990
2 37210   3.6376  68.9657 0005220 197.0833 157.3882  1.00270924 57259
SKYTERRA 1              
1 37218U 10061A   26164.67053672 -.00000111  00000+0  00000+0 0  9996
2 37218   5.1174  50.8587 0002260   6.3265 344.8464  1.00271243 57157
HYLAS 1                 
1 37237U 10065A   26164.90444233  .00000095  00000+0  00000+0 0  9994
2 37237   5.6351  73.0592 0000897 319.1345 209.4126  1.00271118  6854
INTELSAT 17 (IS-17)     
1 37238U 10065B   26164.94661918  .00000008  00000+0  00000+0 0  9994
2 37238   0.0058  70.7045 0002568  20.2090 218.1166  1.00271152 53210
BEIDOU-2 IGSO-2         
1 37256U 10068A   26164.72875620 -.00000220  00000+0  00000+0 0  9997
2 37256  47.5542 271.8769 0055791 212.4593 147.8406  1.00284188 56761
EUTELSAT KA-SAT 9A      
1 37258U 10069A   26164.69237683  .00000072  00000+0  00000+0 0  9991
2 37258   0.0608   9.9609 0003761 122.6141  27.6966  1.00270867 43978
HISPASAT 30W-5          
1 37264U 10070A   26164.82728473 -.00000206  00000+0  00000+0 0  9997
2 37264   0.0484 135.5969 0005049 326.6723  67.6829  1.00272603 53158
KOREASAT 6              
1 37265U 10070B   26164.86490197  .00000000  00000+0  00000+0 0  9992
2 37265   0.0264   7.8293 0002008  85.9403 279.6517  1.00270121 56737
BEIDOU-2 IGSO-3         
1 37384U 11013A   26161.71639865 -.00000195  00000+0  00000+0 0  9996
2 37384  62.3981  40.2143 0034353 184.2630  40.3873  1.00268972 55596
INTELSAT 28 (IS-28)     
1 37392U 11016A   26164.89819369 -.00000216  00000+0  00000+0 0  9993
2 37392   1.7976  82.6591 0003591   5.0835 106.1059  1.00270453 53255
YAHSAT 1A               
1 37393U 11016B   26164.89677398  .00000000  00000+0  00000+0 0  9998
2 37393   0.0214 358.5219 0002636  94.4445 184.5659  1.00272787 42372
SBIRS GEO-1 (USA 230)   
1 37481U 11019A   26164.93479395  .00000106  00000+0  00000+0 0  9998
2 37481   4.5291  53.1307 0002050  23.5240 213.9092  1.00271862 55360
TELSTAR 14R             
1 37602U 11021A   26164.89202876 -.00000270  00000+0  00000+0 0  9992
2 37602   0.0174 359.2219 0002152  57.5293 103.5743  1.00269937 55802
GSAT-8                  
1 37605U 11022A   26164.93762204  .00000093  00000+0  00000+0 0  9999
2 37605   2.1225  81.8617 0002358 203.8501   9.1513  1.00272393 53186
ST-2                    
1 37606U 11022B   26164.96541477  .00000000  00000+0  00000+0 0  9998
2 37606   0.0233 357.3573 0001512  93.2567 247.2082  1.00271416 55249
ZHONGXING-10            
1 37677U 11026A   26164.92146564 -.00000179  00000+0  00000+0 0  9992
2 37677   1.0370  84.2554 0003273   3.2779 231.9213  1.00268863 54963
SES-3                   
1 37748U 11035A   26164.67019006 -.00000092  00000+0  00000+0 0  9997
2 37748   1.3175  83.1220 0002263 353.0724 324.0595  1.00272843 54555
KAZSAT-2                
1 37749U 11035B   26164.92163897 -.00000188  00000+0  00000+0 0  9990
2 37749   0.0307 245.5695 0001107 274.9516 160.0090  1.00271997 53360
BEIDOU-2 IGSO-4         
1 37763U 11038A   26164.96963421  .00000062  00000+0  00000+0 0  9994
2 37763  54.5997 165.7018 0159386 231.3732 307.5435  1.00285286 54613
