OBJECT_NAME,OBJECT_ID,EPOCH,MEAN_MOTION,ECCENTRICITY,INCLINATION,RA_OF_ASC_NODE,ARG_OF_PERICENTER,MEAN_ANOMALY,EPHEMERIS_TYPE,CLASSIFICATION_TYPE,NORAD_CAT_ID,ELEMENT_SET_NO,REV_AT_EPOCH,BSTAR,MEAN_MOTION_DOT,MEAN_MOTION_DDOT
ASTRA 3B,2010-021A,2026-06-13T21:53:27.950784,1.00269406,.00041712,1.4618,83.5938,1.7771,168.7122,0,U,36581,999,5883,0,.146E-5,0
COMSATBW-2,2010-021B,2026-06-13T21:40:38.976960,1.00271340,.00025131,0.0375,58.8104,39.8501,141.8966,0,U,36582,999,5892,0,.98E-6,0
BEIDOU-2 G3,2010-024A,2026-06-13T23:04:48.013248,1.00271447,.00078146,4.5069,61.5280,351.9281,274.7175,0,U,36590,999,5873,0,-.13E-5,0
BADR-5,2010-025A,2026-06-13T22:40:28.286976,1.00268214,.00033167,0.0777,107.7532,86.3139,78.7714,0,U,36592,999,5318,0,.163E-5,0
COMS 1,2010-032A,2026-06-13T20:36:26.895168,0.99162789,.00114466,4.7961,75.3929,11.6277,210.9948,0,U,36744,999,5105,0,.3E-7,0
ARABSAT-5A,2010-032B,2026-06-13T22:40:28.319808,1.00272480,.00057103,0.0842,57.9285,44.4342,170.4804,0,U,36745,999,5861,0,.163E-5,0
ECHOSTAR 15,2010-034A,2026-06-13T16:00:34.852320,1.00272001,.00015702,0.0281,55.8734,34.7972,292.6465,0,U,36792,999,5828,0,.1E-6,0
BEIDOU-2 IGSO-1,2010-036A,2026-06-13T22:13:09.032736,1.00272866,.00592431,54.3020,162.9897,225.1130,315.0800,0,U,36828,999,5806,0,-.47E-6,0
NILESAT 201,2010-037A,2026-06-13T21:40:29.595648,1.00271802,.0004378,0.0471,136.9860,336.0906,107.2767,0,U,36830,999,5834,0,-.47E-6,0
RASCOM-QAF 1R,2010-037B,2026-06-13T21:43:14.332800,1.00271998,.00067917,0.0149,57.7457,20.8842,152.2827,0,U,36831,999,5827,0,.28E-6,0
AEHF-1 (USA 214),2010-039A,2026-06-13T22:02:08.753568,1.00272858,.00038147,8.2110,68.0920,7.2371,187.3593,0,U,36868,999,5362,0,.15E-5,0
XM-5,2010-053A,2026-06-13T21:09:40.208832,1.00271658,.0002967,0.0640,273.2148,287.6063,263.5932,0,U,37185,999,5745,0,-.13E-6,0
BSAT-3B,2010-056B,2026-06-13T23:18:50.444352,1.00270900,.00014951,0.0695,245.7712,301.6654,174.4109,0,U,37207,999,5206,0,-.34E-5,0
BEIDOU-2 G4,2010-057A,2026-06-14T00:04:28.722144,1.00270924,.00052204,3.6376,68.9657,197.0833,157.3882,0,U,37210,999,5725,0,-.106E-5,0
SKYTERRA 1,2010-061A,2026-06-13T16:05:34.372608,1.00271243,.00022607,5.1174,50.8587,6.3265,344.8464,0,U,37218,999,5715,0,-.111E-5,0
HYLAS 1,2010-065A,2026-06-13T21:42:23.817312,1.00271118,.00008979,5.6351,73.0592,319.1345,209.4126,0,U,37237,999,685,0,.95E-6,0
INTELSAT 17 (IS-17),2010-065B,2026-06-13T22:43:07.897152,1.00271152,.00025682,0.0058,70.7045,20.2090,218.1166,0,U,37238,999,5321,0,.8E-7,0
BEIDOU-2 IGSO-2,2010-068A,2026-06-13T17:29:24.535680,1.00284188,.00557913,47.5542,271.8769,212.4593,147.8406,0,U,37256,999,5676,0,-.22E-5,0
EUTELSAT KA-SAT 9A,2010-069A,2026-06-13T16:37:01.358112,1.00270867,.0003761,0.0608,9.9609,122.6141,27.6966,0,U,37258,999,4397,0,.72E-6,0
HISPASAT 30W-5,2010-070A,2026-06-13T19:51:17.400672,1.00272603,.00050496,0.0484,135.5969,326.6723,67.6829,0,U,37264,999,5315,0,-.206E-5,0
KOREASAT 6,2010-070B,2026-06-13T20:45:27.530208,1.00270121,.0002008,0.0264,7.8293,85.9403,279.6517,0,U,37265,999,5673,0,0,0
BEIDOU-2 IGSO-3,2011-013A,2026-06-10T17:11:36.843360,1.00268972,.00343535,62.3981,40.2143,184.2630,40.3873,0,U,37384,999,5559,0,-.195E-5,0
INTELSAT 28 (IS-28),2011-016A,2026-06-13T21:33:23.934816,1.00270453,.00035913,1.7976,82.6591,5.0835,106.1059,0,U,37392,999,5325,0,-.216E-5,0
YAHSAT 1A,2011-016B,2026-06-13T21:31:21.271872,1.00272787,.00026365,0.0214,358.5219,94.4445,184.5659,0,U,37393,999,4237,0,0,0
SBIRS GEO-1 (USA 230),2011-019A,2026-06-13T22:26:06.197280,1.00271862,.00020504,4.5291,53.1307,23.5240,213.9092,0,U,37481,999,5536,0,.106E-5,0
TELSTAR 14R,2011-021A,2026-06-13T21:24:31.284864,1.00269937,.00021524,0.0174,359.2219,57.5293,103.5743,0,U,37602,999,5580,0,-.27E-5,0
GSAT-8,2011-022A,2026-06-13T22:30:10.544256,1.00272393,.0002358,2.1225,81.8617,203.8501,9.1513,0,U,37605,999,5318,0,.93E-6,0
ST-2,2011-022B,2026-06-13T23:10:11.836128,1.00271416,.0001512,0.0233,357.3573,93.2567,247.2082,0,U,37606,999,5524,0,0,0
ZHONGXING-10,2011-026A,2026-06-13T22:06:54.631296,1.00268863,.00032735,1.0370,84.2554,3.2779,231.9213,0,U,37677,999,5496,0,-.179E-5,0
SES-3,2011-035A,2026-06-13T16:05:04.421184,1.00272843,.00022633,1.3175,83.1220,353.0724,324.0595,0,U,37748,999,5455,0,-.92E-6,0
KAZSAT-2,2011-035B,2026-06-13T22:07:09.607008,1.00271997,.00011071,0.0307,245.5695,274.9516,160.0090,0,U,37749,999,5336,0,-.188E-5,0
BEIDOU-2 IGSO-4,2011-038A,2026-06-13T23:16:16.395744,1.00285286,.01593868,54.5997,165.7018,231.3732,307.5435,0,U,37763,999,5461,0,.62E-6,0
